FLOCK 2P-5              
1 41616U 16040T   17354.80893116  .00003477  00000-0  14775-3 0  9993
2 41616  97.4409  56.3032 0011507 142.2722 217.9324 15.23667491 83054
FLOCK 2P-1              
1 41617U 16040U   17354.59802901  .00001048  00000-0  46637-4 0  9997
2 41617  97.4416  56.1313 0011518 143.5040 216.6984 15.23657864 83042
FLOCK 2P-3              
1 41618U 16040V   17354.82580665  .00004383  00000-0  18539-3 0  9998
2 41618  97.4410  56.2753 0011463 142.8484 217.3548 15.23677308 83071
BEESAT-4                
1 41619U 16040W   17354.75085892  .00001789  00000-0  82256-4 0  9998
2 41619  97.4400  55.1862 0013055 131.0662 229.1704 15.21582097 70953
3CAT-2                  
1 41732U 16051B   17355.42831328  .00001719  00000-0  70400-4 0  9995
2 41732  97.3763 269.6751 0013256 341.1860 110.1420 15.25590132 75071
FLOCK 2E'-13            
1 41761U 98067KH  17354.86591848  .00047546  00000-0  40802-3 0  9991
2 41761  51.6329 167.0584 0006745 237.9556 122.0786 15.68863105 72117
FLOCK 2E'-14            
1 41762U 98067KJ  17355.11316031  .00011682  00000-0  11533-3 0  9991
2 41762  51.6355 165.7599 0005436 228.1630 131.8902 15.66406500 72151
FLOCK 2E'-16            
1 41763U 98067KK  17354.84963604  .00040554  00000-0  33664-3 0  9994
2 41763  51.6348 165.4922 0005728 248.1947 111.8441 15.69749942 72090
FLOCK 2E'-15            
1 41764U 98067KL  17354.87657582  .00010732  00000-0  10980-3 0  9994
2 41764  51.6354 167.9272 0004871 236.3165 123.7367 15.65611520 72064
FLOCK 2E'-18            
1 41769U 98067KM  17354.85511473  .00010326  00000-0  10553-3 0  9990
2 41769  51.6356 167.7771 0003529 256.1689 103.8914 15.65692757 72061
FLOCK 2E'-17            
1 41776U 98067KN  17354.87453852  .00043570  00000-0  39159-3 0  9996
2 41776  51.6355 167.1880 0004730 262.8192  97.2267 15.67783571 72065
FLOCK 2E'-19            
1 41777U 98067KP  17354.84295374  .00020007  00000-0  15945-3 0  9994
2 41777  51.6336 160.1165 0003372 249.4004 110.6632 15.71161995 72115
FLOCK 2E'-20            
1 41782U 98067KQ  17354.83554129  .00019895  00000-0  16815-3 0  9995
2 41782  51.6347 162.3755 0003093 245.3817 114.6858 15.69747410 71953
CANX-7                  
1 41788U 16059F   17355.32301230  .00006731  00000-0  11959-2 0  9998
2 41788  98.1931  56.3803 0028485 291.4327  68.3843 14.67231148 66002
ALSAT 1N                
1 41789U 16059G   17355.40945493  .00000122  00000-0  32509-4 0  9997
2 41789  98.1451  55.4743 0027107 287.9996  71.8253 14.64112425 66002
RAVAN                   
1 41849U 16067B   17354.68754078  .00000808  00000-0  74629-4 0  9999
2 41849  97.9365  75.7669 0008929  44.3550 315.8385 14.97458929 60418
CELTEE 1                
1 41850U 16067C   17355.19876742  .00000022  00000-0  72686-5 0  9991
2 41850  97.9367  76.0115 0009887  43.5359 316.6641 14.96716106 60477
OPTICUBE 04             
1 41851U 16067D   17354.81427064 -.00000232  00000-0 -14980-4 0  9996
2 41851  97.9357  75.5793 0009767  44.6287 315.5718 14.96596433 60418
AEROCUBE 8D             
1 41852U 16067E   17354.69370339  .00000346  00000-0  35897-4 0  9999
2 41852  97.9368  75.3257 0010411  45.3370 314.8698 14.96373185 60385
AEROCUBE 8C             
1 41853U 16067F   17355.17168893  .00000716  00000-0  68636-4 0  9992
2 41853  97.9369  75.7847 0010875  45.7291 314.4820 14.96339142 60452
PROMETHEUS 2-1          
1 41854U 16067G   17355.18690616  .00000915  00000-0  86032-4 0  9998
2 41854  97.9379  75.7764 0011391  45.2230 314.9916 14.96386481 60453
PROMETHEUS 2-3          
1 41855U 16067H   17354.78795992  .00000888  00000-0  83728-4 0  9995
2 41855  97.9382  75.3726 0011610  46.6442 313.5744 14.96381249 60390
LEMUR-2-XIAOQING        
1 41871U 16062C   17354.88131906  .00003949  00000-0  17692-3 0  9995
2 41871  51.6331 279.4014 0003533 152.7316 207.3845 15.23510973 59399
LEMUR-2-SOKOLSKY        
1 41872U 16062D   17355.18824087  .00002392  00000-0  11242-3 0  9995
2 41872  51.6955 278.0414 0005286 165.8239 194.2881 15.23600736 59433
LEMUR-2-ANUBHAVTHAKUR   
1 41873U 16062E   17354.86184602  .00000842  00000-0  50717-4 0  9991
2 41873  51.6360 281.4045 0005730 168.3638 191.7467 15.22004864 59348
LEMUR-2-WINGO           
1 41874U 16062F   17354.86656050  .00003050  00000-0  14119-3 0  9992
2 41874  51.6602 279.9933 0007189 150.0691 210.0693 15.23177439 59372
STARS-C                 
1 41895U 98067KR  17354.87655010  .00107157  00000-0  50326-3 0  9999
2 41895  51.6325 161.7990 0004288 251.1119 108.9419 15.82334375 57304
ITF-2                   
1 41932U 98067KU  17355.40882861  .00018554  00000-0  17607-3 0  9994
2 41932  51.6368 170.0160 0004575 232.6553 127.4026 15.66944723 52817
WASEDA-SAT3             
1 41933U 98067KV  17354.86550021  .00027634  00000-0  23799-3 0  9992
2 41933  51.6345 170.8296 0004514 231.6279 128.4312 15.69063538 52759
AOBA-VELOX 3            
1 41935U 98067KX  17354.86662212  .00025278  00000-0  22528-3 0  9991
2 41935  51.6360 171.6280 0004090 230.2668 129.7968 15.68281447 52847
OSNSAT                  
1 41939U 98067KZ  17355.46193208  .00277141  41858-4  63862-3 0  9990
2 41939  51.6277 151.3432 0006695 270.7746  89.2495 15.96716207 52417
FLOCK 3P-8              
1 41951U 17008D   17355.15659263  .00003906  00000-0  16586-3 0  9991
2 41951  97.4735  55.8710 0006830 253.3048 106.7439 15.23660688 46987
FLOCK 3P-51             
1 41952U 17008E   17354.72958619  .00001298  00000-0  56967-4 0  9991
2 41952  97.4744  55.5466 0006696 277.6599  82.3877 15.23758471 46920
FLOCK 3P-37             
1 41953U 17008F   17354.85016508  .00003108  00000-0  13025-3 0  9997
2 41953  97.4740  55.8356 0005984 283.0073  77.0496 15.24273026 46955
INS-1B                  
1 41954U 17008G   17354.84490103  .00001631  00000-0  73457-4 0  9999
2 41954  97.4710  55.1253 0008036 256.3179 103.7163 15.22496169 46864
FLOCK 3P-19             
1 41955U 17008H   17355.17022662  .00001516  00000-0  66217-4 0  9996
2 41955  97.4733  55.8357 0007662 253.6571 106.3824 15.23644947 46911
FLOCK 3P-24             
1 41956U 17008J   17354.83118642  .00003471  00000-0  14637-3 0  9993
2 41956  97.4726  55.5196 0007488 250.7014 109.3413 15.23963365 46946
FLOCK 3P-18             
1 41957U 17008K   17354.63734103  .00002941  00000-0  12489-3 0  9992
2 41957  97.4728  55.3233 0007529 253.8635 106.1773 15.23855090 46756
FLOCK 3P-22             
1 41958U 17008L   17354.78086666  .00000930  00000-0  41822-4 0  9993
2 41958  97.4734  55.4424 0007398 253.7271 106.3152 15.23606916 46761
FLOCK 3P-21             
1 41959U 17008M   17354.83668584  .00001020  00000-0  45613-4 0  9998
2 41959  97.4741  55.5410 0007256 255.5736 104.4696 15.23598354 46785
FLOCK 3P-28             
1 41960U 17008N   17355.22891907  .00003965  00000-0  16833-3 0  9992
2 41960  97.4735  55.9285 0007157 251.7653 108.2806 15.23656197 46921
FLOCK 3P-26             
1 41961U 17008P   17354.84106828  .00002088  00000-0  90033-4 0  9991
2 41961  97.4735  55.5242 0007333 252.7685 107.2749 15.23673348 46789
FLOCK 3P-17             
1 41962U 17008Q   17355.41511336  .00001834  00000-0  79483-4 0  9994
2 41962  97.4735  56.1367 0007123 254.0041 106.0411 15.23646317 46827
FLOCK 3P-27             
1 41963U 17008R   17354.85057668  .00004267  00000-0  18056-3 0  9996
2 41963  97.4734  55.5138 0007422 253.3056 106.7366 15.23714243 46781
FLOCK 3P-25             
1 41964U 17008S   17354.83832529  .00004160  00000-0  17649-3 0  9991
2 41964  97.4733  55.5233 0007115 253.6102 106.4352 15.23644863 46761
FLOCK 3P-4              
1 41965U 17008T   17355.15985455  .00004016  00000-0  17037-3 0  9996
2 41965  97.4735  55.8696 0007000 253.9771 106.0695 15.23673450 46915
FLOCK 3P-2              
1 41966U 17008U   17354.83247192  .00004121  00000-0  17485-3 0  9994
2 41966  97.4738  55.5485 0006914 253.1035 106.9444 15.23654203 46781
FLOCK 3P-1              
1 41967U 17008V   17354.85807405  .00002606  00000-0  11216-3 0  9998
2 41967  97.4740  55.5204 0007040 255.6317 104.4139 15.23510537 46780
FLOCK 3P-3              
1 41968U 17063B   17355.16411422  .00003029  00000-0  12945-3 0  9995
2 41968  97.4734  55.8617 0007032 252.2127 107.8343 15.23614480 46829
FLOCK 3P-6              
1 41969U 17008X   17354.82991788  .00003986  00000-0  16925-3 0  9999
2 41969  97.4738  55.5526 0006814 252.9757 107.0734 15.23647031 46771
FLOCK 3P-7              
1 41970U 17008Y   17354.81003972  .00002510  00000-0  10747-3 0  9997
2 41970  97.4739  55.5809 0006849 257.1238 102.9234 15.23724823 46771
FLOCK 3P-5              
1 41971U 17008Z   17355.15587543  .00003926  00000-0  16669-3 0  9998
2 41971  97.4741  55.8910 0006834 255.4416 104.6063 15.23656041 46768
FLOCK 3P-12             
1 41972U 17008AA  17355.15439252  .00003886  00000-0  16498-3 0  9997
2 41972  97.4738  55.8901 0006679 255.9550 104.0944 15.23664637 46915
FLOCK 3P-9              
1 41973U 17008AB  17355.15776693  .00004031  00000-0  17105-3 0  9990
2 41973  97.4740  55.8911 0006849 253.0726 106.9761 15.23661888 46916
FLOCK 3P-10             
1 41974U 17008AC  17355.21067259  .00003837  00000-0  16277-3 0  9991
2 41974  97.4741  55.9776 0006650 254.7788 105.2714 15.23705235 46807
FLOCK 3P-11             
1 41975U 17008AD  17354.83062562  .00003206  00000-0  13671-3 0  9996
2 41975  97.4740  55.5622 0006939 255.1733 104.8735 15.23646458 46638
FLOCK 3P-60             
1 41976U 17008AE  17355.39528216  .00001637  00000-0  71111-4 0  9992
2 41976  97.4745  56.1933 0006583 255.5650 104.4857 15.23740296 46202
FLOCK 3P-58             
1 41977U 17008AF  17354.82660854  .00003410  00000-0  14524-3 0  9990
2 41977  97.4740  55.5652 0006610 256.4207 103.6294 15.23649970 46942
FLOCK 3P-57             
1 41978U 17008AG  17355.21218984  .00001944  00000-0  84056-4 0  9996
2 41978  97.4741  55.9694 0006718 253.4452 106.6047 15.23662101 46841
